IXPE
1 49954U 21121A   26119.33335648  .00011043  00000+0  60753-3 0  9994
2 49954   0.2320 327.0158 0006903  57.1392 347.0800 15.09792751  5880
